[{"OBJECT_NAME":"STARLINK-5720","OBJECT_ID":"2023-020BC","EPOCH":"2025-08-31T12:13:35.749920","MEAN_MOTION":15.0254147,"ECCENTRICITY":0.00012366,"INCLINATION":43.0034,"RA_OF_ASC_NODE":304.85,"ARG_OF_PERICENTER":283.7167,"MEAN_ANOMALY":76.3538,"EPHEMERIS_TYPE":0,"CLASSIFICATION_TYPE":"U","NORAD_CAT_ID":55619,"ELEMENT_SET_NO":999,"REV_AT_EPOCH":14046,"BSTAR":2.312626e-6,"MEAN_MOTION_DOT":-1.72e-6,"MEAN_MOTION_DDOT":0},{"OBJECT_NAME":"STARLINK-5718","OBJECT_ID":"2023-020BD","EPOCH":"2025-08-31T12:08:47.604192","MEAN_MOTION":15.02533505,"ECCENTRICITY":0.00012679,"INCLINATION":43.0043,"RA_OF_ASC_NODE":304.8215,"ARG_OF_PERICENTER":260.4523,"MEAN_ANOMALY":99.6176,"EPHEMERIS_TYPE":0,"CLASSIFICATION_TYPE":"U","NORAD_CAT_ID":55620,"ELEMENT_SET_NO":999,"REV_AT_EPOCH":14046,"BSTAR":5.3018103e-5,"MEAN_MOTION_DOT":5.13e-6,"MEAN_MOTION_DDOT":0},{"OBJECT_NAME":"STARLINK-5709","OBJECT_ID":"2023-020BE","EPOCH":"2025-08-31T12:24:46.512864","MEAN_MOTION":15.02534844,"ECCENTRICITY":0.00013225,"INCLINATION":43.0037,"RA_OF_ASC_NODE":304.908,"ARG_OF_PERICENTER":269.3474,"MEAN_ANOMALY":90.7217,"EPHEMERIS_TYPE":0,"CLASSIFICATION_TYPE":"U","NORAD_CAT_ID":55621,"ELEMENT_SET_NO":999,"REV_AT_EPOCH":14046,"BSTAR":0.00010231842,"MEAN_MOTION_DOT":1.179e-5,"MEAN_MOTION_DDOT":0},{"OBJECT_NAME":"STARLINK-5702","OBJECT_ID":"2023-020BF","EPOCH":"2025-08-31T12:05:35.821248","MEAN_MOTION":15.02545035,"ECCENTRICITY":0.00013742,"INCLINATION":43.0046,"RA_OF_ASC_NODE":304.8092,"ARG_OF_PERICENTER":272.6439,"MEAN_ANOMALY":87.4246,"EPHEMERIS_TYPE":0,"CLASSIFICATION_TYPE":"U","NORAD_CAT_ID":55622,"ELEMENT_SET_NO":999,"REV_AT_EPOCH":14046,"BSTAR":-0.00011865105,"MEAN_MOTION_DOT":-1.806e-5,"MEAN_MOTION_DDOT":0},{"OBJECT_NAME":"STARLINK-5698","OBJECT_ID":"2023-020BG","EPOCH":"2025-08-31T13:34:56.004672","MEAN_MOTION":15.02533219,"ECCENTRICITY":0.00012843,"INCLINATION":43.0045,"RA_OF_ASC_NODE":304.4121,"ARG_OF_PERICENTER":266.957,"MEAN_ANOMALY":93.1125,"EPHEMERIS_TYPE":0,"CLASSIFICATION_TYPE":"U","NORAD_CAT_ID":55623,"ELEMENT_SET_NO":999,"REV_AT_EPOCH":14047,"BSTAR":7.0371455e-5,"MEAN_MOTION_DOT":7.47e-6,"MEAN_MOTION_DDOT":0},{"OBJECT_NAME":"STARLINK-5484","OBJECT_ID":"2023-021A","EPOCH":"2025-08-31T14:35:00.737088","MEAN_MOTION":14.98331346,"ECCENTRICITY":0.00035076,"INCLINATION":70.0008,"RA_OF_ASC_NODE":323.8085,"ARG_OF_PERICENTER":268.7719,"MEAN_ANOMALY":91.3038,"EPHEMERIS_TYPE":0,"CLASSIFICATION_TYPE":"U","NORAD_CAT_ID":55628,"ELEMENT_SET_NO":999,"REV_AT_EPOCH":13982,"BSTAR":2.0830645e-5,"MEAN_MOTION_DOT":1.56e-6,"MEAN_MOTION_DDOT":0},{"OBJECT_NAME":"STARLINK-5497","OBJECT_ID":"2023-021B","EPOCH":"2025-08-31T14:41:01.424256","MEAN_MOTION":14.98336701,"ECCENTRICITY":0.00023255,"INCLINATION":70.0003,"RA_OF_ASC_NODE":323.824,"ARG_OF_PERICENTER":260.4859,"MEAN_ANOMALY":99.6038,"EPHEMERIS_TYPE":0,"CLASSIFICATION_TYPE":"U","NORAD_CAT_ID":55629,"ELEMENT_SET_NO":999,"REV_AT_EPOCH":13982,"BSTAR":-0.00010498221,"MEAN_MOTION_DOT":-1.345e-5,"MEAN_MOTION_DDOT":0},{"OBJECT_NAME":"STARLINK-5303","OBJECT_ID":"2023-021C","EPOCH":"2025-08-31T14:29:00.332448","MEAN_MOTION":14.9832839,"ECCENTRICITY":0.00031909,"INCLINATION":70.0008,"RA_OF_ASC_NODE":323.7934,"ARG_OF_PERICENTER":271.094,"MEAN_ANOMALY":88.9853,"EPHEMERIS_TYPE":0,"CLASSIFICATION_TYPE":"U","NORAD_CAT_ID":55630,"ELEMENT_SET_NO":999,"REV_AT_EPOCH":13982,"BSTAR":1.0406494e-5,"MEAN_MOTION_DOT":3.1e-7,"MEAN_MOTION_DDOT":0},{"OBJECT_NAME":"STARLINK-5558","OBJECT_ID":"2023-021D","EPOCH":"2025-08-31T13:52:56.048736","MEAN_MOTION":14.98334239,"ECCENTRICITY":0.00033302,"INCLINATION":70.0009,"RA_OF_ASC_NODE":323.7023,"ARG_OF_PERICENTER":268.7975,"MEAN_ANOMALY":91.2802,"EPHEMERIS_TYPE":0,"CLASSIFICATION_TYPE":"U","NORAD_CAT_ID":55631,"ELEMENT_SET_NO":999,"REV_AT_EPOCH":13982,"BSTAR":-4.753162e-6,"MEAN_MOTION_DOT":-1.5e-6,"MEAN_MOTION_DDOT":0},{"OBJECT_NAME":"STARLINK-5546","OBJECT_ID":"2023-021E","EPOCH":"2025-08-31T14:17:00.047616","MEAN_MOTION":14.98328808,"ECCENTRICITY":0.00029222,"INCLINATION":70.0013,"RA_OF_ASC_NODE":323.7632,"ARG_OF_PERICENTER":264.0506,"MEAN_ANOMALY":96.032,"EPHEMERIS_TYPE":0,"CLASSIFICATION_TYPE":"U","NORAD_CAT_ID":55632,"ELEMENT_SET_NO":999,"REV_AT_EPOCH":13982,"BSTAR":-6.743026e-6,"MEAN_MOTION_DOT":-1.73e-6,"MEAN_MOTION_DDOT":0},{"OBJECT_NAME":"STARLINK-5498","OBJECT_ID":"2023-021F","EPOCH":"2025-08-31T14:10:59.423520","MEAN_MOTION":14.9832984,"ECCENTRICITY":0.00031734,"INCLINATION":70.0007,"RA_OF_ASC_NODE":323.747,"ARG_OF_PERICENTER":269.3708,"MEAN_ANOMALY":90.7088,"EPHEMERIS_TYPE":0,"CLASSIFICATION_TYPE":"U","NORAD_CAT_ID":55633,"ELEMENT_SET_NO":999,"REV_AT_EPOCH":13982,"BSTAR":4.5623045e-5,"MEAN_MOTION_DOT":4.51e-6,"MEAN_MOTION_DDOT":0},{"OBJECT_NAME":"STARLINK-5500","OBJECT_ID":"2023-021G","EPOCH":"2025-08-31T14:17:13.974432","MEAN_MOTION":14.98330557,"ECCENTRICITY":0.0003241,"INCLINATION":70.0009,"RA_OF_ASC_NODE":323.7638,"ARG_OF_PERICENTER":265.2299,"MEAN_ANOMALY":94.849,"EPHEMERIS_TYPE":0,"CLASSIFICATION_TYPE":"U","NORAD_CAT_ID":55634,"ELEMENT_SET_NO":999,"REV_AT_EPOCH":13982,"BSTAR":4.4825411e-5,"MEAN_MOTION_DOT":4.42e-6,"MEAN_MOTION_DDOT":0},{"OBJECT_NAME":"STARLINK-5495","OBJECT_ID":"2023-021H","EPOCH":"2025-08-31T13:46:36.366528","MEAN_MOTION":14.98330008,"ECCENTRICITY":0.00034799,"INCLINATION":69.9997,"RA_OF_ASC_NODE":303.8204,"ARG_OF_PERICENTER":269.2437,"MEAN_ANOMALY":90.8323,"EPHEMERIS_TYPE":0,"CLASSIFICATION_TYPE":"U","NORAD_CAT_ID":55635,"ELEMENT_SET_NO":999,"REV_AT_EPOCH":14031,"BSTAR":-2.5924822e-5,"MEAN_MOTION_DOT":-4.02e-6,"MEAN_MOTION_DDOT":0},{"OBJECT_NAME":"STARLINK-5218","OBJECT_ID":"2023-021J","EPOCH":"2025-08-31T13:58:57.296640","MEAN_MOTION":14.98328626,"ECCENTRICITY":0.00034612,"INCLINATION":70.0008,"RA_OF_ASC_NODE":323.7177,"ARG_OF_PERICENTER":270.9195,"MEAN_ANOMALY":89.1568,"EPHEMERIS_TYPE":0,"CLASSIFICATION_TYPE":"U","NORAD_CAT_ID":55636,"ELEMENT_SET_NO":999,"REV_AT_EPOCH":13982,"BSTAR":-0.00027028299,"MEAN_MOTION_DOT":-3.316e-5,"MEAN_MOTION_DDOT":0},{"OBJECT_NAME":"STARLINK-5062","OBJECT_ID":"2023-021K","EPOCH":"2025-08-31T14:10:40.306656","MEAN_MOTION":14.98328018,"ECCENTRICITY":0.00034205,"INCLINATION":69.9996,"RA_OF_ASC_NODE":303.8756,"ARG_OF_PERICENTER":271.7468,"MEAN_ANOMALY":88.3299,"EPHEMERIS_TYPE":0,"CLASSIFICATION_TYPE":"U","NORAD_CAT_ID":55637,"ELEMENT_SET_NO":999,"REV_AT_EPOCH":14031,"BSTAR":2.4211256e-5,"MEAN_MOTION_DOT":1.96e-6,"MEAN_MOTION_DDOT":0},{"OBJECT_NAME":"STARLINK-5507","OBJECT_ID":"2023-021L","EPOCH":"2025-08-31T14:04:57.294336","MEAN_MOTION":14.98335633,"ECCENTRICITY":0.00034058,"INCLINATION":70.0011,"RA_OF_ASC_NODE":323.7325,"ARG_OF_PERICENTER":273.1828,"MEAN_ANOMALY":86.8942,"EPHEMERIS_TYPE":0,"CLASSIFICATION_TYPE":"U","NORAD_CAT_ID":55638,"ELEMENT_SET_NO":999,"REV_AT_EPOCH":13982,"BSTAR":-8.25567e-6,"MEAN_MOTION_DOT":-1.92e-6,"MEAN_MOTION_DDOT":0},{"OBJECT_NAME":"STARLINK-5508","OBJECT_ID":"2023-021M","EPOCH":"2025-08-31T13:40:50.015712","MEAN_MOTION":14.98328728,"ECCENTRICITY":0.00034346,"INCLINATION":69.9997,"RA_OF_ASC_NODE":303.8033,"ARG_OF_PERICENTER":269.6497,"MEAN_ANOMALY":90.4268,"EPHEMERIS_TYPE":0,"CLASSIFICATION_TYPE":"U","NORAD_CAT_ID":55639,"ELEMENT_SET_NO":999,"REV_AT_EPOCH":14031,"BSTAR":-1.2044093e-5,"MEAN_MOTION_DOT":-2.37e-6,"MEAN_MOTION_DDOT":0},{"OBJECT_NAME":"STARLINK-5069","OBJECT_ID":"2023-021N","EPOCH":"2025-08-31T13:34:35.267808","MEAN_MOTION":14.98336038,"ECCENTRICITY":0.00037017,"INCLINATION":70,"RA_OF_ASC_NODE":303.7863,"ARG_OF_PERICENTER":269.4695,"MEAN_ANOMALY":90.604,"EPHEMERIS_TYPE":0,"CLASSIFICATION_TYPE":"U","NORAD_CAT_ID":55640,"ELEMENT_SET_NO":999,"REV_AT_EPOCH":14031,"BSTAR":-9.1010491e-5,"MEAN_MOTION_DOT":-1.179e-5,"MEAN_MOTION_DDOT":0},{"OBJECT_NAME":"STARLINK-5065","OBJECT_ID":"2023-021P","EPOCH":"2025-08-31T14:16:39.716832","MEAN_MOTION":14.98332099,"ECCENTRICITY":0.00030923,"INCLINATION":69.9998,"RA_OF_ASC_NODE":303.887,"ARG_OF_PERICENTER":272.4679,"MEAN_ANOMALY":87.6126,"EPHEMERIS_TYPE":0,"CLASSIFICATION_TYPE":"U","NORAD_CAT_ID":55641,"ELEMENT_SET_NO":999,"REV_AT_EPOCH":14031,"BSTAR":-3.368923e-5,"MEAN_MOTION_DOT":-4.95e-6,"MEAN_MOTION_DDOT":0},{"OBJECT_NAME":"STARLINK-5483","OBJECT_ID":"2023-021R","EPOCH":"2025-08-31T14:28:40.698912","MEAN_MOTION":14.98331141,"ECCENTRICITY":0.00033999,"INCLINATION":70.0001,"RA_OF_ASC_NODE":303.9131,"ARG_OF_PERICENTER":270.9377,"MEAN_ANOMALY":89.1393,"EPHEMERIS_TYPE":0,"CLASSIFICATION_TYPE":"U","NORAD_CAT_ID":55643,"ELEMENT_SET_NO":999,"REV_AT_EPOCH":14031,"BSTAR":1.238048e-6,"MEAN_MOTION_DOT":-7.8e-7,"MEAN_MOTION_DDOT":0},{"OBJECT_NAME":"STARLINK-5502","OBJECT_ID":"2023-021S","EPOCH":"2025-08-31T13:58:37.548192","MEAN_MOTION":14.98332399,"ECCENTRICITY":0.00032667,"INCLINATION":69.9997,"RA_OF_ASC_NODE":303.8464,"ARG_OF_PERICENTER":270.5198,"MEAN_ANOMALY":89.5587,"EPHEMERIS_TYPE":0,"CLASSIFICATION_TYPE":"U","NORAD_CAT_ID":55644,"ELEMENT_SET_NO":999,"REV_AT_EPOCH":14031,"BSTAR":1.5072151e-5,"MEAN_MOTION_DOT":8.7e-7,"MEAN_MOTION_DDOT":0},{"OBJECT_NAME":"STARLINK-5510","OBJECT_ID":"2023-021V","EPOCH":"2025-08-31T13:10:32.452608","MEAN_MOTION":14.98328525,"ECCENTRICITY":0.00035177,"INCLINATION":70.0003,"RA_OF_ASC_NODE":303.7277,"ARG_OF_PERICENTER":268.6788,"MEAN_ANOMALY":91.3968,"EPHEMERIS_TYPE":0,"CLASSIFICATION_TYPE":"U","NORAD_CAT_ID":55647,"ELEMENT_SET_NO":999,"REV_AT_EPOCH":14031,"BSTAR":7.100914e-6,"MEAN_MOTION_DOT":-8.0e-8,"MEAN_MOTION_DDOT":0},{"OBJECT_NAME":"STARLINK-5501","OBJECT_ID":"2023-021W","EPOCH":"2025-08-31T13:52:36.998400","MEAN_MOTION":14.98330333,"ECCENTRICITY":0.00033224,"INCLINATION":69.9996,"RA_OF_ASC_NODE":303.8316,"ARG_OF_PERICENTER":268.8196,"MEAN_ANOMALY":91.2583,"EPHEMERIS_TYPE":0,"CLASSIFICATION_TYPE":"U","NORAD_CAT_ID":55648,"ELEMENT_SET_NO":999,"REV_AT_EPOCH":14031,"BSTAR":-1.241965e-6,"MEAN_MOTION_DOT":-1.08e-6,"MEAN_MOTION_DDOT":0}]
